OBJECT_NAME,OBJECT_ID,EPOCH,MEAN_MOTION,ECCENTRICITY,INCLINATION,RA_OF_ASC_NODE,ARG_OF_PERICENTER,MEAN_ANOMALY,EPHEMERIS_TYPE,CLASSIFICATION_TYPE,NORAD_CAT_ID,ELEMENT_SET_NO,REV_AT_EPOCH,BSTAR,MEAN_MOTION_DOT,MEAN_MOTION_DDOT
SL-14 R/B,1985-069B,2026-06-03T21:48:10.825632,14.86504675,.001723,82.5262,303.8553,266.4790,93.4456,0,U,15945,999,18564,.51617E-4,.482E-5,0
SL-16 R/B,1985-097B,2026-06-03T15:24:28.798272,14.16611206,.0005902,71.0036,319.5954,138.0883,295.9848,0,U,16182,999,9940,.1171E-3,.186E-5,0
COSMOS 1743,1986-034A,2026-06-03T23:40:27.048288,15.65721268,.0003516,82.5276,342.7560,335.3214,24.7877,0,U,16719,999,19372,.45836E-3,.46451E-3,0
SL-14 R/B,1986-046B,2026-06-04T00:27:52.360128,14.85661952,.0021796,82.4818,358.6194,304.8898,55.0269,0,U,16792,999,13922,.42091E-4,.39E-5,0
SL-14 R/B,1986-055B,2026-06-04T02:09:43.923744,14.85713689,.0020077,82.5214,45.4459,49.4350,68.7499,0,U,16882,999,13219,.57205E-4,.522E-5,0
AJISAI (EGS),1986-061A,2026-06-04T05:04:46.826976,12.44516731,.0011292,50.0065,187.2960,147.7096,306.7766,0,U,16908,999,47877,.49755E-4,-.9E-6,0
SL-14 R/B,1987-024B,2026-06-04T00:30:51.076800,14.86204154,.0017607,82.5287,11.6267,339.5555,20.4954,0,U,17567,999,10095,.44698E-4,.418E-5,0
COSMOS 1833,1987-027A,2026-06-04T01:59:25.921824,14.13040386,.0022502,70.9147,144.4136,76.9923,283.3708,0,U,17589,999,2252,.1611E-3,.253E-5,0
SL-16 R/B,1987-027B,2026-06-04T00:24:18.817344,14.17169880,.0005834,71.0024,94.5811,328.0784,31.9986,0,U,17590,999,2757,.11282E-3,.18E-5,0
SL-14 R/B,1987-038B,2026-06-03T14:08:25.364544,14.85436744,.00179036,82.5019,215.8800,238.1443,121.8031,0,U,17912,999,9198,.45746606E-4,.419E-5,0
COSMOS 1844,1987-041A,2026-06-03T14:25:07.817952,14.14570015,.00332892,70.8993,212.9645,254.9966,104.7470,0,U,17973,999,1573,.884839E-5,-.32E-6,0
SL-14 R/B,1988-001B,2026-06-03T06:47:12.494400,14.85598562,.00169705,82.5122,114.8544,319.4199,40.5751,0,U,18749,999,5473,.57507607E-4,.522E-5,0
COSMOS 1933,1988-020A,2026-06-04T01:22:37.811712,15.18626237,.0002267,82.5112,165.4366,246.1559,113.9438,0,U,18958,999,6333,.17813E-3,.3716E-4,0
SL-3 R/B,1988-032B,2026-06-04T03:35:15.325152,15.20736634,.0023798,97.5253,138.2049,294.0823,65.7922,0,U,19046,999,6524,.2351E-3,.514E-4,0
SL-16 R/B,1988-039B,2026-06-03T14:12:39.371040,14.19627836,.0023023,71.0152,246.9042,213.0564,146.9124,0,U,19120,999,97057,.4995942E-4,.58E-6,0
COSMOS 1953,1988-050A,2026-06-03T05:13:46.917696,15.29772927,.001083,82.5089,72.1173,170.8668,189.2771,0,U,19210,999,5085,.29172E-3,.8458E-4,0
SL-8 R/B,1988-053B,2026-06-03T14:08:33.906048,14.38961756,.00193388,74.0476,314.1234,114.4979,314.5681,0,U,19257,999,98895,.10792196E-3,.307E-5,0
COSMOS 1975,1988-093A,2026-06-04T01:37:14.736288,15.29148746,.0010028,82.5198,30.8972,219.1188,140.9328,0,U,19573,999,3260,.30213E-3,.859E-4,0
SL-14 R/B,1988-093B,2026-06-04T01:52:16.548384,14.85731101,.0022104,82.5303,320.9536,110.8783,339.8809,0,U,19574,999,1384,.55138E-4,.505E-5,0
SL-16 R/B,1988-102B,2026-06-03T15:43:43.320864,14.16165836,.0016191,71.0002,330.6123,243.3704,116.5761,0,U,19650,999,93906,.10081E-3,.152E-5,0
INTERCOSMOS 24,1989-080A,2026-06-04T01:41:10.794048,12.59640417,.1188294,82.6077,48.1779,92.3150,281.4182,0,U,20261,999,67767,.29102E-3,.102E-4,0
SL-14 R/B,1989-080C,2026-06-03T07:45:05.572224,12.50560014,.12295748,82.5912,118.2136,349.1174,8.5361,0,U,20262,999,67085,.16948173E-3,.57E-5,0
DELTA 1 R/B,1989-089B,2026-06-04T01:05:21.703776,14.50722386,.0068133,97.0639,348.7061,208.5905,151.1550,0,U,20323,999,90825,.11285E-3,.421E-5,0
ARIANE 40 R/B,1990-005H,2026-06-04T01:12:30.482784,14.39920345,.0008995,98.2964,213.0742,309.5161,50.5231,0,U,20443,999,90523,.11638E-3,.324E-5,0
DELTA 2 R/B(1),1990-008B,2026-06-03T21:09:49.591008,15.66729269,.0068452,35.6007,324.5326,348.4901,11.4272,0,U,20453,999,93961,.65995E-3,.82628E-3,0
COSMOS 2058,1990-010A,2026-06-03T23:10:20.173728,15.11924891,.0010685,82.4665,322.3957,43.2505,316.9562,0,U,20465,999,95527,.18662E-3,.3229E-4,0
SL-14 R/B,1990-010B,2026-06-04T02:00:48.223008,14.83637925,.002024,82.5020,186.2505,19.6434,340.5556,0,U,20466,999,94129,.48123E-4,.422E-5,0
