{"fetched_at":"2026-06-04T14:56:15Z","count":3577,"tles":[{"name":"ARIANE 40 R/B","line1":"1 20443U 90005H   26155.05035281  .00000324  00000+0  11638-3 0  9990","line2":"2 20443  98.2964 213.0742 0008995 309.5161  50.5231 14.39920345905233","category":"Other"},{"name":"SL-14 R/B","line1":"1 20466U 90010B   26155.08389147  .00000422  00000+0  48123-4 0  9996","line2":"2 20466  82.5020 186.2505 0020240  19.6434 340.5556 14.83637925941290","category":"Other"},{"name":"COSMOS 1933","line1":"1 18958U 88020A   26155.05738208  .00003716  00000+0  17813-3 0  9990","line2":"2 18958  82.5112 165.4366 0002267 246.1559 113.9438 15.18626237 63337","category":"Other"},{"name":"INTERCOSMOS 24","line1":"1 20261U 89080A   26155.07026382  .00001020  00000+0  29102-3 0  9992","line2":"2 20261  82.6077  48.1779 1188294  92.3150 281.4182 12.59640417677670","category":"Other"},{"name":"SL-14 R/B","line1":"1 19574U 88093B   26155.07796931  .00000505  00000+0  55138-4 0  9990","line2":"2 19574  82.5303 320.9536 0022104 110.8783 339.8809 14.85731101 13841","category":"Other"},{"name":"SL-14 R/B","line1":"1 16792U 86046B   26155.01935602  .00000390  00000+0  42091-4 0  9995","line2":"2 16792  82.4818 358.6194 0021796 304.8898  55.0269 14.85661952139220","category":"Other"},{"name":"SL-14 R/B","line1":"1 17567U 87024B   26155.02142450  .00000418  00000+0  44698-4 0  9991","line2":"2 17567  82.5287  11.6267 0017607 339.5555  20.4954 14.86204154100953","category":"Other"},{"name":"SL-16 R/B","line1":"1 19650U 88102B   26154.65536251  .00000152  00000+0  10081-3 0  9991","line2":"2 19650  71.0002 330.6123 0016191 243.3704 116.5761 14.16165836939067","category":"Other"},{"name":"AJISAI (EGS)","line1":"1 16908U 86061A   26155.21165309 -.00000090  00000+0  49755-4 0  9994","line2":"2 16908  50.0065 187.2960 0011292 147.7096 306.7766 12.44516731478776","category":"Other"},{"name":"SL-3 R/B","line1":"1 19046U 88032B   26155.14948293  .00005140  00000+0  23510-3 0  9993","line2":"2 19046  97.5253 138.2049 0023798 294.0823  65.7922 15.20736634 65242","category":"Other"},{"name":"DELTA 2 R/B(1)","line1":"1 20453U 90008B   26154.88182397  .00082628  00000+0  65995-3 0  9997","line2":"2 20453  35.6007 324.5326 0068452 348.4901  11.4272 15.66729269939614","category":"Other"},{"name":"SL-14 R/B","line1":"1 20262U 89080C   26154.32298116  .00000570  00000+0  16948-3 0  9999","line2":"2 20262  82.5912 118.2136 1229574 349.1174   8.5361 12.50560014670855","category":"Other"},{"name":"COSMOS 2058","line1":"1 20465U 90010A   26154.96551127  .00003229  00000+0  18662-3 0  9992","line2":"2 20465  82.4665 322.3957 0010685  43.2505 316.9562 15.11924891955271","category":"Other"},{"name":"SL-16 R/B","line1":"1 19120U 88039B   26154.59212235  .00000058  00000+0  49959-4 0  9990","line2":"2 19120  71.0152 246.9042 0023023 213.0564 146.9124 14.19627836970571","category":"Other"},{"name":"SL-16 R/B","line1":"1 16182U 85097B   26154.64199998  .00000186  00000+0  11710-3 0  9997","line2":"2 16182  71.0036 319.5954 0005902 138.0883 295.9848 14.16611206 99405","category":"Other"},{"name":"SL-14 R/B","line1":"1 18749U 88001B   26154.28278350  .00000522  00000+0  57508-4 0  9996","line2":"2 18749  82.5122 114.8544 0016970 319.4199  40.5751 14.85598562 54731","category":"Other"},{"name":"COSMOS 1844","line1":"1 17973U 87041A   26154.60078493 -.00000032  00000+0  88484-5 0  9994","line2":"2 17973  70.8993 212.9645 0033289 254.9966 104.7470 14.14570015 15737","category":"Other"},{"name":"COSMOS 1975","line1":"1 19573U 88093A   26155.06753167  .00008590  00000+0  30213-3 0  9990","line2":"2 19573  82.5198  30.8972 0010028 219.1188 140.9328 15.29148746 32605","category":"Other"},{"name":"COSMOS 1743","line1":"1 16719U 86034A   26154.98642417  .00046451  00000+0  45836-3 0  9992","line2":"2 16719  82.5276 342.7560 0003516 335.3214  24.7877 15.65721268193729","category":"Other"},{"name":"COSMOS 1953","line1":"1 19210U 88050A   26154.21790414  .00008458  00000+0  29172-3 0  9998","line2":"2 19210  82.5089  72.1173 0010830 170.8668 189.2771 15.29772927 50850","category":"Other"},{"name":"DELTA 1 R/B","line1":"1 20323U 89089B   26155.04539009  .00000421  00000+0  11285-3 0  9999","line2":"2 20323  97.0639 348.7061 0068133 208.5905 151.1550 14.50722386908255","category":"Other"},{"name":"SL-8 R/B","line1":"1 19257U 88053B   26154.58928132  .00000307  00000+0  10792-3 0  9995","line2":"2 19257  74.0476 314.1234 0019338 114.4979 314.5681 14.38961756988958","category":"Other"},{"name":"SL-14 R/B","line1":"1 17912U 87038B   26154.58918246  .00000419  00000+0  45747-4 0  9991","line2":"2 17912  82.5019 215.8800 0017903 238.1443 121.8031 14.85436744 91985","category":"Other"},{"name":"COSMOS 1833","line1":"1 17589U 87027A   26155.08293891  .00000253  00000+0  16110-3 0  9994","line2":"2 17589  70.9147 144.4136 0022502  76.9923 283.3708 14.13040386 22522","category":"Other"},{"name":"SL-14 R/B","line1":"1 16882U 86055B   26155.09009171  .00000522  00000+0  57205-4 0  9996","line2":"2 16882  82.5214  45.4459 0020077  49.4350  68.7499 14.85713689132192","category":"Other"},{"name":"SL-16 R/B","line1":"1 17590U 87027B   26155.01688446  .00000180  00000+0  11282-3 0  9997","line2":"2 17590  71.0024  94.5811 0005834 328.0784  31.9986 14.17169880 27570","category":"Other"},{"name":"SL-14 R/B","line1":"1 15945U 85069B   26154.90845863  .00000482  00000+0  51617-4 0  9990","line2":"2 15945  82.5262 303.8553 0017230 266.4790  93.4456 14.86504675185646","category":"Other"}]}